BADR-5                  
1 36592U 10025A   26198.83377906  .00000145  00000+0  00000+0 0  9990
2 36592   0.0545 112.7376 0005269  82.4434  71.0737  1.00272121 53521
COMS 1                  
1 36744U 10032A   26198.47248728 -.00000240  00000+0  00000+0 0  9993
2 36744   4.8812  74.9910 0011288  15.0272 328.3763  0.99167397 51386
ARABSAT-5A              
1 36745U 10032B   26198.48782735  .00000144  00000+0  00000+0 0  9998
2 36745   0.1162  67.4955 0005731  57.7533  16.2034  1.00275341 58955
ECHOSTAR 15             
1 36792U 10034A   26198.60081407 -.00000010  00000+0  00000+0 0  9997
2 36792   0.0430 258.2196 0001878 200.3896 294.2870  1.00272646 58622
BEIDOU-2 IGSO-1         
1 36828U 10036A   26198.83967113 -.00000112  00000+0  00000+0 0  9994
2 36828  54.3070 162.6827 0058852 225.1686 317.0611  1.00263080 58404
NILESAT 201             
1 36830U 10037A   26198.83678420 -.00000067  00000+0  00000+0 0  9997
2 36830   0.0016 245.5130 0004855 247.5792  96.8048  1.00270444 58681
RASCOM-QAF 1R           
1 36831U 10037B   26198.83877753  .00000009  00000+0  00000+0 0  9993
2 36831   0.0111  63.7383 0006195  43.6667 133.0986  1.00271116 58618
AEHF-1 (USA 214)        
1 36868U 10039A   26198.94263992  .00000136  00000+0  00000+0 0  9992
2 36868   8.2951  67.6455 0003850  37.5545 199.8945  1.00276207 53969
XM-5                    
1 37185U 10053A   26198.53021456 -.00000034  00000+0  00000+0 0  9991
2 37185   0.0620 264.4394 0001599 309.7763 156.8058  1.00279095 57788
BSAT-3B                 
1 37207U 10056B   26198.93127411 -.00000359  00000+0  00000+0 0  9991
2 37207   0.0688 244.0864 0002667 294.1267 202.6228  1.00272433 52408
BEIDOU-2 G4             
1 37210U 10057A   26198.79862765 -.00000123  00000+0  00000+0 0  9997
2 37210   3.7213  68.7538 0005592 185.6452 128.6416  1.00272566 57593
SKYTERRA 1              
1 37218U 10061A   26198.53298792 -.00000129  00000+0  00000+0 0  9991
2 37218   5.1880  50.8054 0002601  27.2324 307.8454  1.00270497 57492
HYLAS 1                 
1 37237U 10065A   26198.83377906  .00000121  00000+0  00000+0 0  9995
2 37237   5.7193  72.6400 0001181 142.4485  56.5959  1.00642524  7197
INTELSAT 17 (IS-17)     
1 37238U 10065B   26198.92252073 -.00000011  00000+0  00000+0 0  9992
2 37238   0.0053  82.0607 0002658  40.6707 211.1043  1.00275709 53552
BEIDOU-2 IGSO-2         
1 37256U 10068A   26198.92294310 -.00000202  00000+0  00000+0 0  9997
2 37256  47.4899 271.4483 0056956 213.9138 250.9288  1.00272861 57107
EUTELSAT KA-SAT 9A      
1 37258U 10069A   26198.84489163  .00000052  00000+0  00000+0 0  9995
2 37258   0.0611   3.2601 0004547 142.5836 102.9571  1.00271516 44316
HISPASAT 30W-5          
1 37264U 10070A   26198.90352447 -.00000225  00000+0  00000+0 0  9998
2 37264   0.0340 107.7989 0005722  20.5809 102.5858  1.00270065 53493
KOREASAT 6              
1 37265U 10070B   26198.79854098 -.00000121  00000+0  00000+0 0  9990
2 37265   0.0141  74.4096 0002625  55.2036 253.3596  1.00271224 57078
BEIDOU-2 IGSO-3         
1 37384U 11013A   26198.92086542 -.00000173  00000+0  00000+0 0  9993
2 37384  62.4498  39.8607 0035458 183.4333 150.2767  1.00260211 55969
INTELSAT 28 (IS-28)     
1 37392U 11016A   26198.90317780 -.00000235  00000+0  00000+0 0  9993
2 37392   1.8838  82.2502 0003790  41.0803 105.8174  1.00271871 53593
YAHSAT 1A               
1 37393U 11016B   26198.42080497  .00000000  00000+0  00000+0 0  9992
2 37393   0.0205  69.8766 0003227  46.5689  22.7993  1.00271845 42712
SBIRS GEO-1 (USA 230)   
1 37481U 11019A   26198.73725306  .00000089  00000+0  00000+0 0  9999
2 37481   4.6015  53.0957 0001907  57.3612 142.3092  1.00272590 55705
TELSTAR 14R             
1 37602U 11021A   26198.89444968 -.00000096  00000+0  00000+0 0  9995
2 37602   0.0902  84.7672 0008085 292.2459 164.7167  0.98984109 56145
GSAT-8                  
1 37605U 11022A   26198.82837625  .00000075  00000+0  00000+0 0  9994
2 37605   2.2085  81.4484 0002541 158.0498  49.4441  1.00271369 53526
ST-2                    
1 37606U 11022B   26198.96189388 -.00000220  00000+0  00000+0 0  9999
2 37606   0.0167  82.6221 0001637  50.3728 237.0775  1.00271492 55581
ZHONGXING-10            
1 37677U 11026A   26199.01845806 -.00000198  00000+0  00000+0 0  9996
2 37677   1.1249  83.8500 0003482  21.4280 282.6824  1.00273902 55306
SES-3                   
1 37748U 11035A   26198.88907632 -.00000111  00000+0  00000+0 0  9990
2 37748   1.4042  82.7480 0002057  34.1391  35.8881  1.00271600 54904
KAZSAT-2                
1 37749U 11035B   26198.83377803 -.00000207  00000+0  00000+0 0  9993
2 37749   0.0277 112.5918 0001992  59.0633 150.6588  1.00272732 53704
BEIDOU-2 IGSO-4         
1 37763U 11038A   26198.88443079 -.00000032  00000+0  00000+0 0  9992
2 37763  54.6049 165.3996 0160314 231.4873 311.5627  1.00279354 54957
ASTRA 1N                
1 37775U 11041A   26198.83334295  .00000110  00000+0  00000+0 0  9999
2 37775   0.0625  15.6183 0005862  99.9563 139.2434  1.00271068 44830
BSAT-3C (JCSAT-110R)    
1 37776U 11041B   26198.78865209 -.00000359  00000+0  00000+0 0  9994
2 37776   0.0354 302.8211 0000305 245.0610 141.5760  1.00270537 50775
PAKSAT-1R               
1 37779U 11042A   26198.83585983  .00000145  00000+0  00000+0 0  9994
2 37779   0.7667  84.3090 0003135 352.5417 197.6623  1.00270155 54783
