OBJECT_NAME,OBJECT_ID,EPOCH,MEAN_MOTION,ECCENTRICITY,INCLINATION,RA_OF_ASC_NODE,ARG_OF_PERICENTER,MEAN_ANOMALY,EPHEMERIS_TYPE,CLASSIFICATION_TYPE,NORAD_CAT_ID,ELEMENT_SET_NO,REV_AT_EPOCH,BSTAR,MEAN_MOTION_DOT,MEAN_MOTION_DDOT
BADR-5,2010-025A,2026-07-17T20:00:38.510784,1.00272121,.00052699,0.0545,112.7376,82.4434,71.0737,0,U,36592,999,5352,0,.145E-5,0
COMS 1,2010-032A,2026-07-17T11:20:22.900992,0.99167397,.0011288,4.8812,74.9910,15.0272,328.3763,0,U,36744,999,5138,0,-.24E-5,0
ARABSAT-5A,2010-032B,2026-07-17T11:42:28.283040,1.00275341,.0005731,0.1162,67.4955,57.7533,16.2034,0,U,36745,999,5895,0,.144E-5,0
ECHOSTAR 15,2010-034A,2026-07-17T14:25:10.335648,1.00272646,.00018781,0.0430,258.2196,200.3896,294.2870,0,U,36792,999,5862,0,-.1E-6,0
BEIDOU-2 IGSO-1,2010-036A,2026-07-17T20:09:07.585632,1.00263080,.00588528,54.3070,162.6827,225.1686,317.0611,0,U,36828,999,5840,0,-.112E-5,0
NILESAT 201,2010-037A,2026-07-17T20:04:58.154880,1.00270444,.0004855,0.0016,245.5130,247.5792,96.8048,0,U,36830,999,5868,0,-.67E-6,0
RASCOM-QAF 1R,2010-037B,2026-07-17T20:07:50.378592,1.00271116,.00061951,0.0111,63.7383,43.6667,133.0986,0,U,36831,999,5861,0,.9E-7,0
AEHF-1 (USA 214),2010-039A,2026-07-17T22:37:24.089088,1.00276207,.00038506,8.2951,67.6455,37.5545,199.8945,0,U,36868,999,5396,0,.136E-5,0
XM-5,2010-053A,2026-07-17T12:43:30.537984,1.00279095,.0001599,0.0620,264.4394,309.7763,156.8058,0,U,37185,999,5778,0,-.34E-6,0
BSAT-3B,2010-056B,2026-07-17T22:21:02.083104,1.00272433,.00026671,0.0688,244.0864,294.1267,202.6228,0,U,37207,999,5240,0,-.359E-5,0
BEIDOU-2 G4,2010-057A,2026-07-17T19:10:01.428960,1.00272566,.00055929,3.7213,68.7538,185.6452,128.6416,0,U,37210,999,5759,0,-.123E-5,0
SKYTERRA 1,2010-061A,2026-07-17T12:47:30.156288,1.00270497,.0002601,5.1880,50.8054,27.2324,307.8454,0,U,37218,999,5749,0,-.129E-5,0
HYLAS 1,2010-065A,2026-07-17T20:00:38.510784,1.00642524,.00011812,5.7193,72.6400,142.4485,56.5959,0,U,37237,999,719,0,.121E-5,0
INTELSAT 17 (IS-17),2010-065B,2026-07-17T22:08:25.791072,1.00275709,.00026581,0.0053,82.0607,40.6707,211.1043,0,U,37238,999,5355,0,-.11E-6,0
BEIDOU-2 IGSO-2,2010-068A,2026-07-17T22:09:02.283840,1.00272861,.00569562,47.4899,271.4483,213.9138,250.9288,0,U,37256,999,5710,0,-.202E-5,0
EUTELSAT KA-SAT 9A,2010-069A,2026-07-17T20:16:38.636832,1.00271516,.00045476,0.0611,3.2601,142.5836,102.9571,0,U,37258,999,4431,0,.52E-6,0
HISPASAT 30W-5,2010-070A,2026-07-17T21:41:04.514208,1.00270065,.00057226,0.0340,107.7989,20.5809,102.5858,0,U,37264,999,5349,0,-.225E-5,0
KOREASAT 6,2010-070B,2026-07-17T19:09:53.940672,1.00271224,.00026253,0.0141,74.4096,55.2036,253.3596,0,U,37265,999,5707,0,-.121E-5,0
BEIDOU-2 IGSO-3,2011-013A,2026-07-17T22:06:02.772288,1.00260211,.00354585,62.4498,39.8607,183.4333,150.2767,0,U,37384,999,5596,0,-.173E-5,0
INTELSAT 28 (IS-28),2011-016A,2026-07-17T21:40:34.561920,1.00271871,.00037904,1.8838,82.2502,41.0803,105.8174,0,U,37392,999,5359,0,-.235E-5,0
YAHSAT 1A,2011-016B,2026-07-17T10:05:57.549408,1.00271845,.0003227,0.0205,69.8766,46.5689,22.7993,0,U,37393,999,4271,0,0,0
SBIRS GEO-1 (USA 230),2011-019A,2026-07-17T17:41:38.664384,1.00272590,.00019077,4.6015,53.0957,57.3612,142.3092,0,U,37481,999,5570,0,.89E-6,0
TELSTAR 14R,2011-021A,2026-07-17T21:28:00.452352,0.98984109,.00080857,0.0902,84.7672,292.2459,164.7167,0,U,37602,999,5614,0,-.96E-6,0
GSAT-8,2011-022A,2026-07-17T19:52:51.708000,1.00271369,.00025414,2.2085,81.4484,158.0498,49.4441,0,U,37605,999,5352,0,.75E-6,0
ST-2,2011-022B,2026-07-17T23:05:07.631232,1.00271492,.00016374,0.0167,82.6221,50.3728,237.0775,0,U,37606,999,5558,0,-.22E-5,0
ZHONGXING-10,2011-026A,2026-07-18T00:26:34.776384,1.00273902,.0003482,1.1249,83.8500,21.4280,282.6824,0,U,37677,999,5530,0,-.198E-5,0
SES-3,2011-035A,2026-07-17T21:20:16.194048,1.00271600,.00020576,1.4042,82.7480,34.1391,35.8881,0,U,37748,999,5490,0,-.111E-5,0
KAZSAT-2,2011-035B,2026-07-17T20:00:38.421792,1.00272732,.00019923,0.0277,112.5918,59.0633,150.6588,0,U,37749,999,5370,0,-.207E-5,0
BEIDOU-2 IGSO-4,2011-038A,2026-07-17T21:13:34.820256,1.00279354,.01603145,54.6049,165.3996,231.4873,311.5627,0,U,37763,999,5495,0,-.32E-6,0
ASTRA 1N,2011-041A,2026-07-17T20:00:00.830880,1.00271068,.00058621,0.0625,15.6183,99.9563,139.2434,0,U,37775,999,4483,0,.11E-5,0
BSAT-3C (JCSAT-110R),2011-041B,2026-07-17T18:55:39.540576,1.00270537,.00003056,0.0354,302.8211,245.0610,141.5760,0,U,37776,999,5077,0,-.359E-5,0
PAKSAT-1R,2011-042A,2026-07-17T20:03:38.289312,1.00270155,.00031359,0.7667,84.3090,352.5417,197.6623,0,U,37779,999,5478,0,.145E-5,0
